NORAD_CAT_ID,OBJECT_NAME,OBJECT_TYPE,EPOCH,MEAN_MOTION,ECCENTRICITY,INCLINATION,RA_OF_ASC_NODE,ARG_OF_PERICENTER,MEAN_ANOMALY,BSTAR,MEAN_MOTION_DOT,MEAN_MOTION_DDOT,TLE_LINE0,TLE_LINE1,TLE_LINE2,SEMIMAJOR_AXIS,PERIOD,APOGEE,PERIGEE,DECAYED
52461.0,STARLINK-3900,PAYLOAD,2023-07-14 02:48:59,15.08838753,0.0001145,53.218,81.7011,84.1235,275.9888,-8.5099e-06,-4.23e-06,0.0,0 STARLINK-3900,1 52461U 22049L   23195.11736009 -.00000423  00000-0 -85099-5 0  9999,2 52461  53.2180  81.7011 0001145  84.1235 275.9888 15.08838753 66176,6917.884,95.438,540.541,538.957,0.0
52461.0,STARLINK-3900,PAYLOAD,2023-07-15 01:04:23,15.08846064,0.0001139,53.2178,77.5388,83.1487,276.9634,0.00011618,1.562e-05,0.0,0 STARLINK-3900,1 52461U 22049L   23196.04471292  .00001562  00000-0  11618-3 0  9999,2 52461  53.2178  77.5388 0001139  83.1487 276.9634 15.08846064 66314,6917.862,95.437,540.515,538.939,0.0
52461.0,STARLINK-3900,PAYLOAD,2023-07-16 02:30:34,15.08841795,0.0001186,53.2182,72.7797,85.7615,274.3512,2.9122e-05,1.76e-06,0.0,0 STARLINK-3900,1 52461U 22049L   23197.10456056  .00000176  00000-0  29122-4 0  9998,2 52461  53.2182  72.7797 0001186  85.7615 274.3512 15.08841795 66473,6917.875,95.437,540.56,538.919,0.0
52461.0,STARLINK-3900,PAYLOAD,2023-07-17 08:42:53,15.0884731,0.0001065,53.2173,67.1292,92.995,267.1164,-1.3561e-05,-5.04e-06,0.0,0 STARLINK-3900,1 52461U 22049L   23198.36311838 -.00000504  00000-0 -13561-4 0  9992,2 52461  53.2173  67.1292 0001065  92.9950 267.1164 15.08847310 66662,6917.858,95.437,540.46,538.986,0.0
52461.0,STARLINK-3900,PAYLOAD,2023-07-18 00:36:44,15.0885077,0.0001035,53.2169,64.1555,101.6433,258.4675,0.00011174,1.492e-05,0.0,0 STARLINK-3900,1 52461U 22049L   23199.02551144  .00001492  00000-0  11174-3 0  9994,2 52461  53.2169  64.1555 0001035 101.6433 258.4675 15.08850770 66762,6917.847,95.437,540.428,538.996,0.0
52461.0,STARLINK-3900,PAYLOAD,2023-07-19 00:27:32,15.08836189,0.0001097,53.2171,59.6929,103.6037,256.5078,-1.3581e-05,-5.04e-06,0.0,0 STARLINK-3900,1 52461U 22049L   23200.01912565 -.00000504  00000-0 -13581-4 0  9994,2 52461  53.2171  59.6929 0001097 103.6037 256.5078 15.08836189 66910,6917.892,95.438,540.516,538.998,0.0
52461.0,STARLINK-3900,PAYLOAD,2023-07-20 14:36:47,15.08834786,0.0001099,53.2179,52.5569,92.8274,267.2843,6.6322e-05,7.68e-06,0.0,0 STARLINK-3900,1 52461U 22049L   23201.60888841  .00000768  00000-0  66322-4 0  9990,2 52461  53.2179  52.5569 0001099  92.8274 267.2843 15.08834786 67151,6917.896,95.438,540.522,539.001,0.0
52461.0,STARLINK-3900,PAYLOAD,2023-07-20 22:33:43,15.08841154,0.0001141,53.2178,51.0713,96.415,263.6972,9.2049e-05,1.177e-05,0.0,0 STARLINK-3900,1 52461U 22049L   23201.94008462  .00001177  00000-0  92049-4 0  9990,2 52461  53.2178  51.0713 0001141  96.4150 263.6972 15.08841154 67202,6917.877,95.437,540.531,538.953,0.0
52461.0,STARLINK-3900,PAYLOAD,2023-07-21 14:27:35,15.08835527,0.0001152,53.2187,48.0991,89.0754,271.037,5.7701e-05,6.31e-06,0.0,0 STARLINK-3900,1 52461U 22049L   23202.60249136  .00000631  00000-0  57701-4 0  9999,2 52461  53.2187  48.0991 0001152  89.0754 271.0370 15.08835527 67309,6917.894,95.438,540.556,538.962,0.0
52461.0,STARLINK-3900,PAYLOAD,2023-07-23 23:41:28,15.08840897,0.0001226,53.2183,37.3908,113.3133,246.7988,-4.0269e-07,-2.94e-06,0.0,0 STARLINK-3900,1 52461U 22049L   23204.98713051 -.00000294  00000-0 -40269-6 0  9994,2 52461  53.2183  37.3908 0001226 113.3133 246.7988 15.08840897 67500,6917.878,95.437,540.591,538.895,0.0
52461.0,STARLINK-3900,PAYLOAD,2023-07-25 12:15:20,15.08834361,0.000112,53.2186,30.5543,84.7264,275.3856,6.9253e-05,8.14e-06,0.0,0 STARLINK-3900,1 52461U 22049L   23206.51065541  .00000814  00000-0  69253-4 0  9997,2 52461  53.2186  30.5543 0001120  84.7264 275.3856 15.08834361 67738,6917.898,95.438,540.537,538.988,0.0
52461.0,STARLINK-3900,PAYLOAD,2023-07-25 18:36:52,15.08843139,0.0001108,53.2183,29.3645,91.3963,268.7156,5.1889e-05,5.38e-06,0.0,0 STARLINK-3900,1 52461U 22049L   23206.77561138  .00000538  00000-0  51889-4 0  9997,2 52461  53.2183  29.3645 0001108  91.3963 268.7156 15.08843139 67776,6917.871,95.437,540.502,538.969,0.0
52461.0,STARLINK-3900,PAYLOAD,2023-07-26 21:38:24,15.08859048,0.0001091,53.2181,24.3097,86.0512,274.0605,7.2382e-05,8.65e-06,0.0,0 STARLINK-3900,1 52461U 22049L   23207.90167731  .00000865  00000-0  72382-4 0  9998,2 52461  53.2181  24.3097 0001091  86.0512 274.0605 15.08859048 67946,6917.822,95.436,540.442,538.932,0.0
52461.0,STARLINK-3900,PAYLOAD,2023-07-27 11:56:54,15.08828532,0.0001045,53.218,21.6332,100.9322,259.1787,-3.5358e-06,-3.44e-06,0.0,0 STARLINK-3900,1 52461U 22049L   23208.49785874 -.00000344  00000-0 -35358-5 0  9994,2 52461  53.2180  21.6332 0001045 100.9322 259.1787 15.08828532 68031,6917.915,95.438,540.503,539.058,0.0
52461.0,STARLINK-3900,PAYLOAD,2023-07-27 21:29:13,15.08832309,0.0001091,53.2184,19.8488,102.5363,257.5752,-1.4417e-05,-5.17e-06,0.0,0 STARLINK-3900,1 52461U 22049L   23208.89529875 -.00000517  00000-0 -14417-4 0  9999,2 52461  53.2184  19.8488 0001091 102.5363 257.5752 15.08832309 68097,6917.904,95.438,540.524,539.014,0.0
52461.0,STARLINK-3900,PAYLOAD,2023-07-28 13:23:05,15.08834962,0.0001014,53.2179,16.8756,95.3456,264.7652,-0.00010582,-1.971e-05,0.0,0 STARLINK-3900,1 52461U 22049L   23209.55770364 -.00001971  00000-0 -10582-3 0  9997,2 52461  53.2179  16.8756 0001014  95.3456 264.7652 15.08834962 68190,6917.896,95.438,540.462,539.059,0.0
52461.0,STARLINK-3900,PAYLOAD,2023-07-28 21:20:02,15.08818623,0.0001195,53.2179,15.3884,105.9001,254.2123,-1.2364e-05,-4.84e-06,0.0,0 STARLINK-3900,1 52461U 22049L   23209.88891326 -.00000484  00000-0 -12364-4 0  9994,2 52461  53.2179  15.3884 0001195 105.9001 254.2123 15.08818623 68407,6917.946,95.439,540.637,538.984,0.0
52461.0,STARLINK-3900,PAYLOAD,2023-07-29 10:03:06,15.08828725,8.76e-05,53.2179,13.0089,103.9132,256.1958,0.00012281,1.667e-05,0.0,0 STARLINK-3900,1 52461U 22049L   23210.41882695  .00001667  00000-0  12281-3 0  9993,2 52461  53.2179  13.0089 0000876 103.9132 256.1958 15.08828725 68486,6917.915,95.438,540.386,539.174,0.0
52461.0,STARLINK-3900,PAYLOAD,2023-07-29 18:00:01,15.08841984,8.81e-05,53.2183,11.5227,102.1555,257.9536,0.00020603,2.993e-05,0.0,0 STARLINK-3900,1 52461U 22049L   23210.75001952  .00002993  00000-0  20603-3 0  9999,2 52461  53.2183  11.5227 0000881 102.1555 257.9536 15.08841984 68533,6917.874,95.437,540.349,539.13,0.0
52461.0,STARLINK-3900,PAYLOAD,2023-07-30 22:36:57,15.08859028,8.68e-05,53.217,6.1699,93.1193,266.9898,0.00047223,7.24e-05,0.0,0 STARLINK-3900,1 52461U 22049L   23211.94233514  .00007240  00000-0  47223-3 0  9999,2 52461  53.2170   6.1699 0000868  93.1193 266.9898 15.08859028 68713,6917.822,95.436,540.288,539.087,0.0
52461.0,STARLINK-3900,PAYLOAD,2023-07-31 09:44:40,15.08837053,5.68e-05,53.2169,4.0884,106.7002,253.4052,-0.00015397,-2.737e-05,0.0,0 STARLINK-3900,1 52461U 22049L   23212.40602105 -.00002737  00000-0 -15397-3 0  9992,2 52461  53.2169   4.0884 0000568 106.7002 253.4052 15.08837053 68785,6917.889,95.438,540.147,539.361,0.0
52461.0,STARLINK-3900,PAYLOAD,2023-07-31 17:41:35,15.08847709,8.26e-05,53.217,2.6017,96.5751,263.5335,0.00024642,3.637e-05,0.0,0 STARLINK-3900,1 52461U 22049L   23212.73721834  .00003637  00000-0  24642-3 0  9990,2 52461  53.2170   2.6017 0000826  96.5751 263.5335 15.08847709 68834,6917.857,95.437,540.293,539.15,0.0
52461.0,STARLINK-3900,PAYLOAD,2023-08-01 15:56:59,15.08849293,8.9e-05,53.2167,358.438,93.244,266.8654,0.00061471,9.511e-05,0.0,0 STARLINK-3900,1 52461U 22049L   23213.66458004  .00009511  00000-0  61471-3 0  9997,2 52461  53.2167 358.4380 0000890  93.2440 266.8654 15.08849293 68970,6917.852,95.437,540.333,539.101,0.0
52461.0,STARLINK-3900,PAYLOAD,2023-08-02 09:26:14,15.0884782,9.27e-05,53.2166,355.1675,89.3671,270.7428,0.00039318,5.977e-05,0.0,0 STARLINK-3900,1 52461U 22049L   23214.39321919  .00005977  00000-0  39318-3 0  9999,2 52461  53.2166 355.1675 0000927  89.3671 270.7428 15.08847820 69083,6917.856,95.437,540.363,539.08,0.0
52461.0,STARLINK-3900,PAYLOAD,2023-08-03 09:17:01,15.08844385,0.0001174,53.2172,350.7071,89.9359,270.1767,0.00013215,1.816e-05,0.0,0 STARLINK-3900,1 52461U 22049L   23215.38681748  .00001816  00000-0  13215-3 0  9994,2 52461  53.2172 350.7071 0001174  89.9359 270.1767 15.08844385 69235,6917.867,95.437,540.544,538.92,0.0
52461.0,STARLINK-3900,PAYLOAD,2023-08-04 09:07:48,15.0883638,9.78e-05,53.2183,346.2451,77.5637,282.5465,1.7562e-05,-8e-08,0.0,0 STARLINK-3900,1 52461U 22049L   23216.38042057 -.00000008  00000-0  17562-4 0  9992,2 52461  53.2183 346.2451 0000978  77.5637 282.5465 15.08836380 69386,6917.891,95.438,540.433,539.08,0.0
52461.0,STARLINK-3900,PAYLOAD,2023-08-05 13:44:44,15.0886008,0.0001081,53.2187,340.8971,74.9051,285.2061,0.00050559,7.772e-05,0.0,0 STARLINK-3900,1 52461U 22049L   23217.57273448  .00007772  00000-0  50559-3 0  9990,2 52461  53.2187 340.8971 0001081  74.9051 285.2061 15.08860080 69560,6917.819,95.436,540.432,538.936,0.0
52461.0,STARLINK-3900,PAYLOAD,2023-08-06 08:49:22,15.0883872,9.87e-05,53.2182,337.3301,67.1234,292.9862,1.3204e-05,-7.8e-07,0.0,0 STARLINK-3900,1 52461U 22049L   23218.36762238 -.00000078  00000-0  13204-4 0  9998,2 52461  53.2182 337.3301 0000987  67.1234 292.9862 15.08838720 69687,6917.884,95.438,540.432,539.067,0.0
52461.0,STARLINK-3900,PAYLOAD,2023-08-06 15:10:55,15.08819456,7.76e-05,53.2178,336.1375,86.7833,273.3248,-0.00025296,-4.309e-05,0.0,0 STARLINK-3900,1 52461U 22049L   23218.63258765 -.00004309  00000-0 -25296-3 0  9998,2 52461  53.2178 336.1375 0000776  86.7833 273.3248 15.08819456 69729,6917.943,95.439,540.345,539.271,0.0
52461.0,STARLINK-3900,PAYLOAD,2023-08-07 00:43:14,15.08824983,8.73e-05,53.218,334.3532,101.7371,258.3719,7.5883e-05,9.2e-06,0.0,0 STARLINK-3900,1 52461U 22049L   23219.03003239  .00000920  00000-0  75883-4 0  9998,2 52461  53.2180 334.3532 0000873 101.7371 258.3719 15.08824983 69783,6917.926,95.439,540.395,539.187,0.0
